[{"OBJECT_NAME":"STARLINK-32164","OBJECT_ID":"2024-131S","EPOCH":"2026-03-01T09:27:38.949984","MEAN_MOTION":15.30190993,"ECCENTRICITY":0.0001531,"INCLINATION":53.1599,"RA_OF_ASC_NODE":91.3069,"ARG_OF_PERICENTER":99.8119,"MEAN_ANOMALY":260.3055,"EPHEMERIS_TYPE":0,"CLASSIFICATION_TYPE":"U","NORAD_CAT_ID":60271,"ELEMENT_SET_NO":999,"REV_AT_EPOCH":9034,"BSTAR":2.7938e-5,"MEAN_MOTION_DOT":4.68e-6,"MEAN_MOTION_DDOT":0},{"OBJECT_NAME":"STARLINK-32128","OBJECT_ID":"2024-131T","EPOCH":"2026-03-01T08:16:13.928160","MEAN_MOTION":15.30192395,"ECCENTRICITY":0.0001528,"INCLINATION":53.16,"RA_OF_ASC_NODE":90.9995,"ARG_OF_PERICENTER":89.7111,"MEAN_ANOMALY":270.4064,"EPHEMERIS_TYPE":0,"CLASSIFICATION_TYPE":"U","NORAD_CAT_ID":60272,"ELEMENT_SET_NO":999,"REV_AT_EPOCH":9044,"BSTAR":7.8607e-5,"MEAN_MOTION_DOT":1.969e-5,"MEAN_MOTION_DDOT":0},{"OBJECT_NAME":"STARLINK-32206","OBJECT_ID":"2024-131U","EPOCH":"2026-03-01T10:46:30.624384","MEAN_MOTION":15.30196994,"ECCENTRICITY":0.0001365,"INCLINATION":53.1592,"RA_OF_ASC_NODE":90.9495,"ARG_OF_PERICENTER":84.6252,"MEAN_ANOMALY":275.4904,"EPHEMERIS_TYPE":0,"CLASSIFICATION_TYPE":"U","NORAD_CAT_ID":60273,"ELEMENT_SET_NO":999,"REV_AT_EPOCH":9045,"BSTAR":0.00011327,"MEAN_MOTION_DOT":2.997e-5,"MEAN_MOTION_DDOT":0},{"OBJECT_NAME":"STARLINK-32155","OBJECT_ID":"2024-131V","EPOCH":"2026-03-01T12:11:26.378880","MEAN_MOTION":15.30206083,"ECCENTRICITY":0.0001215,"INCLINATION":53.158,"RA_OF_ASC_NODE":90.5983,"ARG_OF_PERICENTER":80.2155,"MEAN_ANOMALY":279.8983,"EPHEMERIS_TYPE":0,"CLASSIFICATION_TYPE":"U","NORAD_CAT_ID":60274,"ELEMENT_SET_NO":999,"REV_AT_EPOCH":9036,"BSTAR":0.00022271,"MEAN_MOTION_DOT":6.244e-5,"MEAN_MOTION_DDOT":0},{"OBJECT_NAME":"STARLINK-32152","OBJECT_ID":"2024-131W","EPOCH":"2026-03-01T08:11:39.808608","MEAN_MOTION":15.30191777,"ECCENTRICITY":0.0001251,"INCLINATION":53.1598,"RA_OF_ASC_NODE":90.9764,"ARG_OF_PERICENTER":90.799,"MEAN_ANOMALY":269.3154,"EPHEMERIS_TYPE":0,"CLASSIFICATION_TYPE":"U","NORAD_CAT_ID":60275,"ELEMENT_SET_NO":999,"REV_AT_EPOCH":9034,"BSTAR":4.3153e-5,"MEAN_MOTION_DOT":9.19e-6,"MEAN_MOTION_DDOT":0},{"OBJECT_NAME":"STARLINK-32154","OBJECT_ID":"2024-131X","EPOCH":"2026-03-01T11:10:39.823680","MEAN_MOTION":15.30198682,"ECCENTRICITY":0.0001199,"INCLINATION":53.1598,"RA_OF_ASC_NODE":90.331,"ARG_OF_PERICENTER":88.1069,"MEAN_ANOMALY":272.0069,"EPHEMERIS_TYPE":0,"CLASSIFICATION_TYPE":"U","NORAD_CAT_ID":60276,"ELEMENT_SET_NO":999,"REV_AT_EPOCH":9046,"BSTAR":7.8707e-5,"MEAN_MOTION_DOT":1.972e-5,"MEAN_MOTION_DDOT":0},{"OBJECT_NAME":"STARLINK-32135","OBJECT_ID":"2024-131Y","EPOCH":"2026-03-01T11:34:57.816768","MEAN_MOTION":15.30193423,"ECCENTRICITY":0.0001331,"INCLINATION":53.1605,"RA_OF_ASC_NODE":90.4338,"ARG_OF_PERICENTER":91.9631,"MEAN_ANOMALY":268.1522,"EPHEMERIS_TYPE":0,"CLASSIFICATION_TYPE":"U","NORAD_CAT_ID":60277,"ELEMENT_SET_NO":999,"REV_AT_EPOCH":9046,"BSTAR":8.019e-5,"MEAN_MOTION_DOT":2.016e-5,"MEAN_MOTION_DDOT":0},{"OBJECT_NAME":"STARLINK-32156","OBJECT_ID":"2024-132A","EPOCH":"2026-03-01T08:13:13.182816","MEAN_MOTION":15.30185855,"ECCENTRICITY":0.0001707,"INCLINATION":53.1603,"RA_OF_ASC_NODE":91.1142,"ARG_OF_PERICENTER":98.9031,"MEAN_ANOMALY":261.2163,"EPHEMERIS_TYPE":0,"CLASSIFICATION_TYPE":"U","NORAD_CAT_ID":60278,"ELEMENT_SET_NO":999,"REV_AT_EPOCH":9150,"BSTAR":4.6381e-5,"MEAN_MOTION_DOT":1.014e-5,"MEAN_MOTION_DDOT":0},{"OBJECT_NAME":"STARLINK-32010","OBJECT_ID":"2024-132B","EPOCH":"2026-03-01T07:26:16.732896","MEAN_MOTION":15.30187366,"ECCENTRICITY":0.0001169,"INCLINATION":53.1599,"RA_OF_ASC_NODE":91.6253,"ARG_OF_PERICENTER":91.6455,"MEAN_ANOMALY":268.4679,"EPHEMERIS_TYPE":0,"CLASSIFICATION_TYPE":"U","NORAD_CAT_ID":60279,"ELEMENT_SET_NO":999,"REV_AT_EPOCH":9027,"BSTAR":4.9156e-6,"MEAN_MOTION_DOT":-2.14e-6,"MEAN_MOTION_DDOT":0},{"OBJECT_NAME":"STARLINK-32118","OBJECT_ID":"2024-132C","EPOCH":"2026-03-01T09:38:09.504096","MEAN_MOTION":15.30188626,"ECCENTRICITY":0.0001321,"INCLINATION":53.1601,"RA_OF_ASC_NODE":90.7707,"ARG_OF_PERICENTER":87.2666,"MEAN_ANOMALY":272.8486,"EPHEMERIS_TYPE":0,"CLASSIFICATION_TYPE":"U","NORAD_CAT_ID":60280,"ELEMENT_SET_NO":999,"REV_AT_EPOCH":9029,"BSTAR":4.5412e-5,"MEAN_MOTION_DOT":9.86e-6,"MEAN_MOTION_DDOT":0},{"OBJECT_NAME":"STARLINK-32038","OBJECT_ID":"2024-132D","EPOCH":"2026-03-01T08:07:08.715648","MEAN_MOTION":15.30182418,"ECCENTRICITY":0.0001276,"INCLINATION":53.1606,"RA_OF_ASC_NODE":91.0872,"ARG_OF_PERICENTER":92.0889,"MEAN_ANOMALY":268.0258,"EPHEMERIS_TYPE":0,"CLASSIFICATION_TYPE":"U","NORAD_CAT_ID":60281,"ELEMENT_SET_NO":999,"REV_AT_EPOCH":9028,"BSTAR":3.9916e-6,"MEAN_MOTION_DOT":-2.41e-6,"MEAN_MOTION_DDOT":0},{"OBJECT_NAME":"STARLINK-32113","OBJECT_ID":"2024-132E","EPOCH":"2026-03-01T08:08:39.952320","MEAN_MOTION":15.3018811,"ECCENTRICITY":0.0001358,"INCLINATION":53.1607,"RA_OF_ASC_NODE":91.0938,"ARG_OF_PERICENTER":85.367,"MEAN_ANOMALY":274.7486,"EPHEMERIS_TYPE":0,"CLASSIFICATION_TYPE":"U","NORAD_CAT_ID":60282,"ELEMENT_SET_NO":999,"REV_AT_EPOCH":9028,"BSTAR":3.1827e-5,"MEAN_MOTION_DOT":5.83e-6,"MEAN_MOTION_DDOT":0},{"OBJECT_NAME":"STARLINK-32037","OBJECT_ID":"2024-132F","EPOCH":"2026-03-01T11:45:38.064960","MEAN_MOTION":15.30193157,"ECCENTRICITY":0.0001224,"INCLINATION":53.1596,"RA_OF_ASC_NODE":90.6108,"ARG_OF_PERICENTER":71.1724,"MEAN_ANOMALY":288.9409,"EPHEMERIS_TYPE":0,"CLASSIFICATION_TYPE":"U","NORAD_CAT_ID":60283,"ELEMENT_SET_NO":999,"REV_AT_EPOCH":9030,"BSTAR":5.9935e-5,"MEAN_MOTION_DOT":1.416e-5,"MEAN_MOTION_DDOT":0},{"OBJECT_NAME":"STARLINK-32123","OBJECT_ID":"2024-132G","EPOCH":"2026-03-01T10:16:51.883392","MEAN_MOTION":15.30199193,"ECCENTRICITY":0.0001335,"INCLINATION":53.1603,"RA_OF_ASC_NODE":78.1689,"ARG_OF_PERICENTER":91.1181,"MEAN_ANOMALY":268.9973,"EPHEMERIS_TYPE":0,"CLASSIFICATION_TYPE":"U","NORAD_CAT_ID":60284,"ELEMENT_SET_NO":999,"REV_AT_EPOCH":9047,"BSTAR":8.5636e-5,"MEAN_MOTION_DOT":2.178e-5,"MEAN_MOTION_DDOT":0},{"OBJECT_NAME":"STARLINK-32122","OBJECT_ID":"2024-132H","EPOCH":"2026-03-01T08:28:24.737376","MEAN_MOTION":15.30189079,"ECCENTRICITY":0.000126,"INCLINATION":53.16,"RA_OF_ASC_NODE":91.1801,"ARG_OF_PERICENTER":73.0979,"MEAN_ANOMALY":287.016,"EPHEMERIS_TYPE":0,"CLASSIFICATION_TYPE":"U","NORAD_CAT_ID":60285,"ELEMENT_SET_NO":999,"REV_AT_EPOCH":9028,"BSTAR":5.4705e-5,"MEAN_MOTION_DOT":1.261e-5,"MEAN_MOTION_DDOT":0},{"OBJECT_NAME":"STARLINK-31656","OBJECT_ID":"2024-132J","EPOCH":"2026-03-01T09:29:02.890176","MEAN_MOTION":15.30194797,"ECCENTRICITY":0.000106,"INCLINATION":53.1597,"RA_OF_ASC_NODE":90.7383,"ARG_OF_PERICENTER":85.118,"MEAN_ANOMALY":274.9942,"EPHEMERIS_TYPE":0,"CLASSIFICATION_TYPE":"U","NORAD_CAT_ID":60286,"ELEMENT_SET_NO":999,"REV_AT_EPOCH":9029,"BSTAR":-8.3829e-5,"MEAN_MOTION_DOT":-2.84e-5,"MEAN_MOTION_DDOT":0},{"OBJECT_NAME":"STARLINK-32114","OBJECT_ID":"2024-132K","EPOCH":"2026-03-01T09:06:24.701184","MEAN_MOTION":15.30184947,"ECCENTRICITY":0.000113,"INCLINATION":53.1602,"RA_OF_ASC_NODE":91.3408,"ARG_OF_PERICENTER":91.0745,"MEAN_ANOMALY":269.0385,"EPHEMERIS_TYPE":0,"CLASSIFICATION_TYPE":"U","NORAD_CAT_ID":60287,"ELEMENT_SET_NO":999,"REV_AT_EPOCH":9028,"BSTAR":-4.875e-6,"MEAN_MOTION_DOT":-5.03e-6,"MEAN_MOTION_DDOT":0}]
