STARLINK-32164          
1 60271U 24131S   26060.39420081  .00000468  00000+0  27938-4 0  9998
2 60271  53.1599  91.3069 0001531  99.8119 260.3055 15.30190993 90342
STARLINK-32128          
1 60272U 24131T   26060.34460565  .00001969  00000+0  78607-4 0  9991
2 60272  53.1600  90.9995 0001528  89.7111 270.4064 15.30192395 90446
STARLINK-32206          
1 60273U 24131U   26060.44896556  .00002997  00000+0  11327-3 0  9993
2 60273  53.1592  90.9495 0001365  84.6252 275.4904 15.30196994 90459
STARLINK-32155          
1 60274U 24131V   26060.50794420  .00006244  00000+0  22271-3 0  9997
2 60274  53.1580  90.5983 0001215  80.2155 279.8983 15.30206083 90369
STARLINK-32152          
1 60275U 24131W   26060.34143297  .00000919  00000+0  43153-4 0  9996
2 60275  53.1598  90.9764 0001251  90.7990 269.3154 15.30191777 90348
STARLINK-32154          
1 60276U 24131X   26060.46573870  .00001972  00000+0  78707-4 0  9997
2 60276  53.1598  90.3310 0001199  88.1069 272.0069 15.30198682 90460
STARLINK-32135          
1 60277U 24131Y   26060.48261362  .00002016  00000+0  80190-4 0  9999
2 60277  53.1605  90.4338 0001331  91.9631 268.1522 15.30193423 90464
STARLINK-32156          
1 60278U 24132A   26060.34251369  .00001014  00000+0  46381-4 0  9993
2 60278  53.1603  91.1142 0001707  98.9031 261.2163 15.30185855 91503
STARLINK-32010          
1 60279U 24132B   26060.30991589 -.00000214  00000+0  49156-5 0  9991
2 60279  53.1599  91.6253 0001169  91.6455 268.4679 15.30187366 90271
STARLINK-32118          
1 60280U 24132C   26060.40149889  .00000986  00000+0  45412-4 0  9997
2 60280  53.1601  90.7707 0001321  87.2666 272.8486 15.30188626 90293
STARLINK-32038          
1 60281U 24132D   26060.33829532 -.00000241  00000+0  39916-5 0  9998
2 60281  53.1606  91.0872 0001276  92.0889 268.0258 15.30182418 90282
STARLINK-32113          
1 60282U 24132E   26060.33935130  .00000583  00000+0  31827-4 0  9991
2 60282  53.1607  91.0938 0001358  85.3670 274.7486 15.30188110 90283
STARLINK-32037          
1 60283U 24132F   26060.49002390  .00001416  00000+0  59935-4 0  9998
2 60283  53.1596  90.6108 0001224  71.1724 288.9409 15.30193157 90302
STARLINK-32123          
1 60284U 24132G   26060.42837828  .00002178  00000+0  85636-4 0  9997
2 60284  53.1603  78.1689 0001335  91.1181 268.9973 15.30199193 90477
STARLINK-32122          
1 60285U 24132H   26060.35306409  .00001261  00000+0  54705-4 0  9991
2 60285  53.1600  91.1801 0001260  73.0979 287.0160 15.30189079 90288
STARLINK-31656          
1 60286U 24132J   26060.39517234 -.00002840  00000+0 -83829-4 0  9991
2 60286  53.1597  90.7383 0001060  85.1180 274.9942 15.30194797 90297
STARLINK-32114          
1 60287U 24132K   26060.37945256 -.00000503  00000+0 -48750-5 0  9998
2 60287  53.1602  91.3408 0001130  91.0745 269.0385 15.30184947 90282
